[{"OBJECT_NAME":"STARLINK-34661","OBJECT_ID":"2025-157Z","EPOCH":"2026-03-09T04:14:45.271104","MEAN_MOTION":15.30185177,"ECCENTRICITY":8.509e-5,"INCLINATION":53.1605,"RA_OF_ASC_NODE":348.1565,"ARG_OF_PERICENTER":103.4154,"MEAN_ANOMALY":256.6942,"EPHEMERIS_TYPE":0,"CLASSIFICATION_TYPE":"U","NORAD_CAT_ID":64927,"ELEMENT_SET_NO":999,"REV_AT_EPOCH":3576,"BSTAR":0.0012553914,"MEAN_MOTION_DOT":0.0003699,"MEAN_MOTION_DDOT":0},{"OBJECT_NAME":"CZ-6A DEB","OBJECT_ID":"2022-151QB","EPOCH":"2026-03-08T18:03:47.471328","MEAN_MOTION":15.32168285,"ECCENTRICITY":0.00205863,"INCLINATION":98.6246,"RA_OF_ASC_NODE":151.4486,"ARG_OF_PERICENTER":181.9757,"MEAN_ANOMALY":178.1404,"EPHEMERIS_TYPE":0,"CLASSIFICATION_TYPE":"U","NORAD_CAT_ID":54890,"ELEMENT_SET_NO":999,"REV_AT_EPOCH":17659,"BSTAR":0.012866954,"MEAN_MOTION_DOT":0.00424465,"MEAN_MOTION_DDOT":0}]
